1 45189U 20012M   22365.06793201  .00002954  00000-0  21715-3 0  9997
2 45189  53.0534 234.8178 0001364 104.1841 255.9299 15.06397356158364
1 45189U 20012M   22365.33332167  .00005101  00000-0  36107-3 0  9995
2 45189  53.0528 233.6265 0001396 101.4634 258.6511 15.06402266156560
1 45189U 20012M   22365.53235954  .00006040  00000-0  42396-3 0  9993
2 45189  53.0527 232.7332 0001461  99.0401 261.0753 15.06408948156593
1 45189U 20012M   23001.32852080  .00000376  00000-0  44147-4 0  9996
2 45189  53.0524 229.1582 0001450  92.8625 267.2530 15.06406423158559
1 45189U 20012M   23001.59390819 -.00002127  00000-0 -12395-3 0  9999
2 45189  53.0521 227.9671 0001533  95.5532 264.5631 15.06399195156759
1 45189U 20012M   23001.66025642 -.00003357  00000-0 -20657-3 0  9992
2 45189  53.0528 227.6691 0001526  97.6606 262.4557 15.06397259156766
1 45189U 20012M   23001.66025642 -.00003357  00000-0 -20657-3 0  9992
2 45189  53.0528 227.6691 0001526  97.6606 262.4557 15.06397259158601
1 45189U 20012M   23002.58911038  .00000759  00000-0  69841-4 0  9997
2 45189  53.0526 223.4987 0001322 101.7743 258.3394 15.06402757156908
1 45189U 20012M   23002.65545710  .00001001  00000-0  86064-4 0  9992
2 45189  53.0520 223.2014 0001369 101.7915 258.3228 15.06403550156912
1 45189U 20012M   23002.65545710  .00001001  00000-0  86064-4 0  9992
2 45189  53.0520 223.2014 0001369 101.7915 258.3228 15.06403550158756
1 45189U 20012M   23003.58431698  .00001615  00000-0  12733-3 0  9996
2 45189  53.0523 219.0318 0001431  98.8805 261.2346 15.06396910157050
1 45189U 20012M   23003.71701203  .00001454  00000-0  11648-3 0  9998
2 45189  53.0522 218.4358 0001408  99.6943 260.4205 15.06394879158915
1 45189U 20012M   23004.31413038  .00001845  00000-0  14272-3 0  9991
2 45189  53.0521 215.7551 0001381 100.1647 259.9498 15.06401836157163
1 45189U 20012M   23004.84490063  .00002665  00000-0  19770-3 0  9991
2 45189  53.0519 213.3720 0001406 100.2967 259.8181 15.06408227157244
1 45189U 20012M   23004.84490063  .00002665  00000-0  19770-3 0  9991
2 45189  53.0519 213.3720 0001406 100.2967 259.8181 15.06408227159088
1 45189U 20012M   23005.57471781  .00001542  00000-0  12241-3 0  9997
2 45189  53.0516 210.0965 0001380  96.7891 263.3255 15.06398527157357
1 45189U 20012M   23005.84010295  .00001166  00000-0  97143-4 0  9993
2 45189  53.0514 208.9045 0001396  99.2541 260.8606 15.06401388157393
1 45189U 20012M   23005.84010295  .00001166  00000-0  97143-4 0  9993
2 45189  53.0514 208.9045 0001396  99.2541 260.8606 15.06401388159238
1 45189U 20012M   23006.56991994 -.00001331  00000-0 -70458-4 0  9993
2 45189  53.0513 205.6283 0001396  99.3250 260.7897 15.06395306159348
1 45189U 20012M   23006.90165726 -.00002569  00000-0 -15365-3 0  9996
2 45189  53.0513 204.1388 0001384  98.5552 261.5593 15.06389757157557
1 45189U 20012M   23007.23339380 -.00001689  00000-0 -94529-4 0  9994
2 45189  53.0516 202.6500 0001361  98.3750 261.7393 15.06391151157609
1 45189U 20012M   23007.83054246  .00013551  00000-0  92834-3 0  9990
2 45189  53.0530 199.9693 0001819 102.6344 257.4848 15.06341683159538
1 45189U 20012M   23007.89686705  .00000822  00000-0  74092-4 0  9991
2 45189  53.0531 199.6713 0001351 100.0573 260.0568 15.06390691157705
1 45189U 20012M   23007.89686705  .00000822  00000-0  74092-4 0  9991
2 45189  53.0531 199.6713 0001351 100.0573 260.0568 15.06390691159549
1 45189U 20012M   23008.49398992  .00002080  00000-0  15854-3 0  9994
2 45189  53.0533 196.9906 0001267 102.4831 257.6300 15.06390019157799
1 45189U 20012M   23008.62668387  .00002283  00000-0  17217-3 0  9997
2 45189  53.0531 196.3949 0001277 102.0878 258.0254 15.06391299157813
1 45189U 20012M   23009.48919080  .00002820  00000-0  20815-3 0  9996
2 45189  53.0520 192.5226 0001282 100.5840 259.5294 15.06400635157944
1 45189U 20012M   23009.48919080  .00002820  00000-0  20815-3 0  9996
2 45189  53.0520 192.5226 0001282 100.5840 259.5294 15.06400635159788
1 45189U 20012M   23009.75457622  .00003414  00000-0  24796-3 0  9997
2 45189  53.0520 191.3311 0001276 100.8624 259.2509 15.06404533157983
1 45189U 20012M   23010.55073755  .00000602  00000-0  59317-4 0  9992
2 45189  53.0518 187.7567 0001347 101.7422 258.3718 15.06400098158106
1 45189U 20012M   23010.74977870  .00000074  00000-0  23867-4 0  9998
2 45189  53.0519 186.8632 0001341 101.1062 259.0078 15.06398268158133
1 45189U 20012M   23010.74977870  .00000074  00000-0  23867-4 0  9998
2 45189  53.0519 186.8632 0001341 101.1062 259.0078 15.06398268159976
1 45189U 20012M   23011.28054856  .00000979  00000-0  84597-4 0  9999
2 45189  53.0527 184.4803 0001377 101.2265 258.8879 15.06406374160059
1 45189U 20012M   23011.54593168  .00001303  00000-0  10630-3 0  9990
2 45189  53.0527 183.2889 0001372 101.3447 258.7696 15.06409585158250
1 45189U 20012M   23011.87766077  .00001264  00000-0  10371-3 0  9995
2 45189  53.0527 181.7991 0001391 103.5089 256.6055 15.06414224158302
1 45189U 20012M   23011.87766077  .00001264  00000-0  10371-3 0  9995
2 45189  53.0527 181.7991 0001391 103.5089 256.6055 15.06414224160147
1 45189U 20012M   23012.80653306 -.00000875  00000-0 -39845-4 0  9996
2 45189  53.0524 177.6302 0001139  95.1939 264.9180 15.06388752160286
1 45189U 20012M   23012.87288036 -.00000503  00000-0 -14880-4 0  9997
2 45189  53.0524 177.3324 0001160  95.4742 264.6379 15.06389692158453
1 45189U 20012M   23013.53634914 -.00000028  00000-0  17017-4 0  9997
2 45189  53.0525 174.3537 0001082  94.8654 265.2458 15.06394356158554
1 45189U 20012M   23013.73538786  .00001339  00000-0  10877-3 0  9990
2 45189  53.0525 173.4604 0001033  93.8987 266.2120 15.06399255158586
1 45189U 20012M   23013.73538786  .00001339  00000-0  10877-3 0  9990
2 45189  53.0525 173.4604 0001033  93.8987 266.2120 15.06399255160422
1 45189U 20012M   23014.46520873  .00003567  00000-0  25824-3 0  9992
2 45189  53.0522 170.1844 0000972  89.2968 270.8132 15.06396198160537
1 45189U 20012M   23015.39407082 -.00000034  00000-0  16585-4 0  9993
2 45189  53.0520 166.0141 0001319  76.3559 283.7577 15.06389867160674
1 45189U 20012M   23015.59310777  .00001425  00000-0  11457-3 0  9995
2 45189  53.0527 165.1208 0001039  77.2744 282.8361 15.06395699158869
1 45189U 20012M   23015.79214424  .00002493  00000-0  18614-3 0  9997
2 45189  53.0524 164.2268 0001042  84.5036 275.6072 15.06404447158895
1 45189U 20012M   23015.79214424  .00002493  00000-0  18614-3 0  9997
2 45189  53.0524 164.2268 0001042  84.5036 275.6072 15.06404447160731
1 45189U 20012M   23016.12388337  .00001661  00000-0  13038-3 0  9991
2 45189  53.0530 162.7383 0001171  70.9760 289.1356 15.06398463160785
1 45189U 20012M   23016.58830943  .00002174  00000-0  16475-3 0  9994
2 45189  53.0527 160.6523 0001154  81.0997 279.0122 15.06401574159011
1 45189U 20012M   23016.72100171  .00002893  00000-0  21301-3 0  9995
2 45189  53.0529 160.0562 0001136  81.1787 278.9330 15.06404561159038
1 45189U 20012M   23017.38447925  .00001059  00000-0  89975-4 0  9994
2 45189  53.0533 157.0800 0001266  77.4727 282.6403 15.06390600159132
1 45189U 20012M   23017.38447925  .00001059  00000-0  89975-4 0  9994
2 45189  53.0533 157.0800 0001266  77.4727 282.6403 15.06390600160976
1 45189U 20012M   23017.64986635  .00001082  00000-0  91540-4 0  9996
2 45189  53.0532 155.8884 0001236  80.7434 279.3695 15.06392678159175
1 45189U 20012M   23018.44602627  .00001373  00000-0  11103-3 0  9990
2 45189  53.0540 152.3142 0001259  75.5286 284.5842 15.06398444161133
1 45189U 20012M   23018.51237113  .00001716  00000-0  13403-3 0  9998
2 45189  53.0541 152.0166 0001230  73.0575 287.0549 15.06401135159300
1 45189U 20012M   23018.71140656  .00004432  00000-0  31613-3 0  9996
2 45189  53.0525 151.1227 0001233  65.1999 294.9118 15.06413451161176
1 45189U 20012M   23019.37488494  .00001941  00000-0  14920-3 0  9998
2 45189  53.0529 148.1438 0001181  77.5489 282.5632 15.06395109161277
1 45189U 20012M   23019.50757814  .00002682  00000-0  19890-3 0  9992
2 45189  53.0530 147.5486 0001379  66.8221 293.2913 15.06398482159454
1 45189U 20012M   23020.03834826  .00002528  00000-0  18855-3 0  9990
2 45189  53.0530 145.1653 0001227  73.5548 286.5575 15.06404645161375
1 45189U 20012M   23020.50277454  .00002727  00000-0  20190-3 0  9996
2 45189  53.0525 143.0803 0001240  94.1153 265.9978 15.06404564159600
1 45189U 20012M   23021.09989764  .00004549  00000-0  32405-3 0  9991
2 45189  53.0520 140.4009 0001358  76.2111 283.9029 15.06401520161530
1 45189U 20012M   23021.43163854 -.00001469  00000-0 -79792-4 0  9994
2 45189  53.0526 138.9107 0001167  81.8701 278.2420 15.06389934161583
1 45189U 20012M   23021.69702097  .00001788  00000-0  13885-3 0  9992
2 45189  53.0527 137.7194 0001153  80.0332 280.0787 15.06402215161623
1 45189U 20012M   23023.02396494  .00006015  00000-0  42233-3 0  9998
2 45189  53.0533 131.7667 0001936  55.9107 304.2065 15.06401816161825
1 45189U 20012M   23024.48359395  .00001288  00000-0  10537-3 0  9997
2 45189  53.0535 125.2107 0001261  66.4072 293.7049 15.06401788162040
1 45189U 20012M   23025.54514751  .00001774  00000-0  13795-3 0  9993
2 45189  53.0527 120.4452 0001307  75.1326 284.9808 15.06396600160365
1 45189U 20012M   23025.54514751  .00001774  00000-0  13795-3 0  9993
2 45189  53.0527 120.4452 0001307  75.1326 284.9808 15.06396600162200
1 45189U 20012M   23026.54034723  .00002928  00000-0  21533-3 0  9991
2 45189  53.0533 115.9787 0001252  75.7930 284.3198 15.06404505160515
1 45189U 20012M   23026.93842894  .00000542  00000-0  55293-4 0  9991
2 45189  53.0532 114.1902 0001252  81.0819 279.0312 15.06400027162415
1 45189U 20012M   23027.46921256  .00000680  00000-0  64543-4 0  9991
2 45189  53.0545 111.8088 0001417  88.1473 271.9679 15.06393237162494
1 45189U 20012M   23027.53555754  .00001095  00000-0  92425-4 0  9996
2 45189  53.0543 111.5107 0001360  85.2639 274.8506 15.06395988160663
1 45189U 20012M   23028.46440860  .00001305  00000-0  10647-3 0  9999
2 45189  53.0541 107.3411 0001408  93.0217 267.0933 15.06402430162643
1 45189U 20012M   23028.53075397  .00001956  00000-0  15017-3 0  9994
2 45189  53.0533 107.0423 0001420  87.7459 272.3692 15.06405540160819
1 45189U 20012M   23028.92883901  .00000664  00000-0  63485-4 0  9993
2 45189  53.0537 105.2535 0001501  78.1226 281.9931 15.06397774162715
1 45189U 20012M   23029.45965848  .00029171  00000-0  19757-2 0  9998
2 45189  53.0550 102.8699 0001757  48.5669 311.5471 15.06276931162797
1 45189U 20012M   23029.59236668  .00036091  00000-0  24392-2 0  9994
2 45189  53.0551 102.2737 0001950  47.3932 312.7221 15.06250964162817
1 45189U 20012M   23029.92404567  .00000637  00000-0  61647-4 0  9999
2 45189  53.0543 100.7869 0001557  83.6418 276.4748 15.06396217161026
1 45189U 20012M   23030.18943256  .00000150  00000-0  28997-4 0  9993
2 45189  53.0536  99.5953 0001429  86.9772 273.1380 15.06398440162908
1 45189U 20012M   23030.58750874  .00000874  00000-0  77553-4 0  9994
2 45189  53.0535  97.8081 0001429  84.2166 275.8986 15.06403493161127
1 45189U 20012M   23031.18463872  .00005072  00000-0  35935-3 0  9992
2 45189  53.0531  95.1266 0001427  90.5776 269.5377 15.06380376163056
1 45189U 20012M   23031.58270988  .00001206  00000-0  99855-4 0  9997
2 45189  53.0532  93.3392 0001460  93.4243 266.6913 15.06403120161274
1 45189U 20012M   23031.58270988  .00001206  00000-0  99855-4 0  9997
2 45189  53.0532  93.3392 0001460  93.4243 266.6913 15.06403120163119
